ISS OBJECT XK           
1 65731U 98067XK  26057.50341060  .00585880  15821-3  12568-2 0  9999
2 65731  51.6191 106.0856 0007390  23.7474 336.3875 15.97908056 25102
YOTSUBA-KULOVER         
1 65941U 98067XN  26058.13120645  .00155334  00000+0  95645-3 0  9990
2 65941  51.6225 111.8727 0006105   8.4969 351.6133 15.76174813 21832
BOTAN                   
1 65942U 98067XP  26058.15598656  .01290162  10016-2  16949-2 0  9994
2 65942  51.6105 105.1617 0009022  24.9378 335.2069 16.06354992 21920
E-KAGAKU-1              
1 65943U 98067XQ  26057.37283327  .00156564  00000+0  98365-3 0  9992
2 65943  51.6251 115.8237 0006178  13.9440 346.1729 15.75710786 21719
HRC MONOBLOCK CAMERA    
1 66052U 98067XR  26058.20505076  .00045888  00000+0  53931-3 0  9991
2 66052  51.6282 118.3987 0003162  48.3883 311.7381 15.60970650 20755
HTV-X1                  
1 66174U 25241A   26057.92898233  .00012356  00000+0  23739-3 0  9995
2 66174  51.6324 125.5516 0008331 137.1924 222.9714 15.48321702554615
SZ-21 MODULE            
1 66515U 25246C   26057.67317424  .00037285  00000+0  33362-3 0  9990
2 66515  41.4744 271.1302 0001433 288.0377  72.0308 15.67604463 16347
SHENZHOU-22             
1 66645U 25272A   26058.02710992  .00029164  00000+0  35096-3 0  9993
2 66645  41.4660 273.0164 0006026 205.1472 154.9074 15.60161945267854
SOYUZ-MS 28             
1 66664U 25275A   26057.92898233  .00012356  00000+0  23739-3 0  9996
2 66664  51.6324 125.5516 0008331 137.1924 222.9714 15.48321702554664
DUPLEX                  
1 66906U 98067XS  26058.18057736  .00033598  00000+0  48826-3 0  9993
2 66906  51.6292 121.9855 0001825  82.6224 277.4974 15.55461576 13497
ISS OBJECT XT           
1 66907U 98067XT  26058.19095292  .00120924  00000+0  11501-2 0  9993
2 66907  51.6257 119.0475 0004217  18.7212 341.3937 15.65944652 13537
ISS OBJECT XU           
1 66908U 98067XU  26058.18978582  .00121749  00000+0  11540-2 0  9994
2 66908  51.6252 119.0365 0004299  20.7709 339.3460 15.66025339 13536
